{
  "type": "FeatureCollection",
  "features": [
    {
      "type": "Feature",
      "properties": {
        "norad_id": 33860,
        "name": "IRIDIUM 33 DEB",
        "group": "iridium-33-debris",
        "lat": -44.619540996727984,
        "lon": 26.814776716165895,
        "alt_km": 674.2591583595431,
        "timestamp": "2025-12-05T14:45:15.682478+00:00",
        "meta_object_name": "IRIDIUM 33 DEB",
        "meta_object_id": "1997-051AD",
        "meta_epoch": "2025-12-04T15:05:54.621024",
        "meta_mean_motion": 14.67202229,
        "meta_eccentricity": 0.000847,
        "meta_inclination": 86.3845,
        "meta_ra_of_asc_node": 30.8279,
        "meta_arg_of_pericenter": 24.4738,
        "meta_mean_anomaly": 128.1182,
        "meta_ephemeris_type": 0,
        "meta_classification_type": "U",
        "meta_norad_cat_id": 33860,
        "meta_element_set_no": 999,
        "meta_rev_at_epoch": 88603,
        "meta_bstar": 0.0030619,
        "meta_mean_motion_dot": 0.00017288,
        "meta_mean_motion_ddot": 0,
        "tle_line1": "1 33860U 97051AD  25338.62910441  .00017288  00000+0  30619-2 0  9996",
        "tle_line2": "2 33860  86.3845  30.8279 0008470  24.4738 128.1182 14.67202229886035"
      },
      "geometry": {
        "type": "Point",
        "coordinates": [
          26.814776716165895,
          -44.619540996727984
        ]
      }
    },
    {
      "type": "Feature",
      "properties": {
        "norad_id": 33862,
        "name": "IRIDIUM 33 DEB",
        "group": "iridium-33-debris",
        "lat": -62.869045411130735,
        "lon": 33.63431026861343,
        "alt_km": 705.1780390270287,
        "timestamp": "2025-12-05T14:45:15.682489+00:00",
        "meta_object_name": "IRIDIUM 33 DEB",
        "meta_object_id": "1997-051AF",
        "meta_epoch": "2025-12-04T16:42:30.042720",
        "meta_mean_motion": 14.69271517,
        "meta_eccentricity": 0.0053935,
        "meta_inclination": 86.41,
        "meta_ra_of_asc_node": 41.0767,
        "meta_arg_of_pericenter": 95.9978,
        "meta_mean_anomaly": 25.5972,
        "meta_ephemeris_type": 0,
        "meta_classification_type": "U",
        "meta_norad_cat_id": 33862,
        "meta_element_set_no": 999,
        "meta_rev_at_epoch": 88705,
        "meta_bstar": 0.0035031,
        "meta_mean_motion_dot": 0.00021187,
        "meta_mean_motion_ddot": 0,
        "tle_line1": "1 33862U 97051AF  25338.69618105  .00021187  00000+0  35031-2 0  9993",
        "tle_line2": "2 33862  86.4100  41.0767 0053935  95.9978  25.5972 14.69271517887051"
      },
      "geometry": {
        "type": "Point",
        "coordinates": [
          33.63431026861343,
          -62.869045411130735
        ]
      }
    },
    {
      "type": "Feature",
      "properties": {
        "norad_id": 33866,
        "name": "IRIDIUM 33 DEB",
        "group": "iridium-33-debris",
        "lat": 51.52534120436506,
        "lon": 100.71997722637926,
        "alt_km": 857.5740106528938,
        "timestamp": "2025-12-05T14:45:15.682501+00:00",
        "meta_object_name": "IRIDIUM 33 DEB",
        "meta_object_id": "1997-051AK",
        "meta_epoch": "2025-12-04T14:58:37.870752",
        "meta_mean_motion": 14.25229782,
        "meta_eccentricity": 0.0113814,
        "meta_inclination": 86.3001,
        "meta_ra_of_asc_node": 96.4688,
        "meta_arg_of_pericenter": 187.2582,
        "meta_mean_anomaly": 185.4361,
        "meta_ephemeris_type": 0,
        "meta_classification_type": "U",
        "meta_norad_cat_id": 33866,
        "meta_element_set_no": 999,
        "meta_rev_at_epoch": 86695,
        "meta_bstar": 0.0014526,
        "meta_mean_motion_dot": 3.671e-05,
        "meta_mean_motion_ddot": 0,
        "tle_line1": "1 33866U 97051AK  25338.62404943  .00003671  00000+0  14526-2 0  9997",
        "tle_line2": "2 33866  86.3001  96.4688 0113814 187.2582 185.4361 14.25229782866952"
      },
      "geometry": {
        "type": "Point",
        "coordinates": [
          100.71997722637926,
          51.52534120436506
        ]
      }
    },
    {
      "type": "Feature",
      "properties": {
        "norad_id": 33867,
        "name": "IRIDIUM 33 DEB",
        "group": "iridium-33-debris",
        "lat": -11.827003991534077,
        "lon": 174.53917128821092,
        "alt_km": 402.17091483094555,
        "timestamp": "2025-12-05T14:45:15.682511+00:00",
        "meta_object_name": "IRIDIUM 33 DEB",
        "meta_object_id": "1997-051AL",
        "meta_epoch": "2025-12-04T13:14:30.177024",
        "meta_mean_motion": 15.55427003,
        "meta_eccentricity": 0.001226,
        "meta_inclination": 86.3624,
        "meta_ra_of_asc_node": 354.3184,
        "meta_arg_of_pericenter": 96.5296,
        "meta_mean_anomaly": 263.7362,
        "meta_ephemeris_type": 0,
        "meta_classification_type": "U",
        "meta_norad_cat_id": 33867,
        "meta_element_set_no": 999,
        "meta_rev_at_epoch": 89383,
        "meta_bstar": 0.010802,
        "meta_mean_motion_dot": 0.0080017,
        "meta_mean_motion_ddot": 0,
        "tle_line1": "1 33867U 97051AL  25338.55173816  .00800170  00000+0  10802-1 0  9993",
        "tle_line2": "2 33867  86.3624 354.3184 0012260  96.5296 263.7362 15.55427003893836"
      },
      "geometry": {
        "type": "Point",
        "coordinates": [
          174.53917128821092,
          -11.827003991534077
        ]
      }
    },
    {
      "type": "Feature",
      "properties": {
        "norad_id": 33870,
        "name": "IRIDIUM 33 DEB",
        "group": "iridium-33-debris",
        "lat": -15.178884975575414,
        "lon": 60.32985533296166,
        "alt_km": 755.9571126094788,
        "timestamp": "2025-12-05T14:45:15.682522+00:00",
        "meta_object_name": "IRIDIUM 33 DEB",
        "meta_object_id": "1997-051AP",
        "meta_epoch": "2025-12-04T12:31:35.253120",
        "meta_mean_motion": 14.45780101,
        "meta_eccentricity": 0.0020597,
        "meta_inclination": 86.3758,
        "meta_ra_of_asc_node": 61.7832,
        "meta_arg_of_pericenter": 205.3349,
        "meta_mean_anomaly": 215.0687,
        "meta_ephemeris_type": 0,
        "meta_classification_type": "U",
        "meta_norad_cat_id": 33870,
        "meta_element_set_no": 999,
        "meta_rev_at_epoch": 88018,
        "meta_bstar": 0.0020187,
        "meta_mean_motion_dot": 7.196e-05,
        "meta_mean_motion_ddot": 0,
        "tle_line1": "1 33870U 97051AP  25338.52193580  .00007196  00000+0  20187-2 0  9999",
        "tle_line2": "2 33870  86.3758  61.7832 0020597 205.3349 215.0687 14.45780101880181"
      },
      "geometry": {
        "type": "Point",
        "coordinates": [
          60.32985533296166,
          -15.178884975575414
        ]
      }
    },
    {
      "type": "Feature",
      "properties": {
        "norad_id": 33881,
        "name": "IRIDIUM 33 DEB",
        "group": "iridium-33-debris",
        "lat": -58.94207450057552,
        "lon": 103.81430085211461,
        "alt_km": 721.7474454811518,
        "timestamp": "2025-12-05T14:45:15.682533+00:00",
        "meta_object_name": "IRIDIUM 33 DEB",
        "meta_object_id": "1997-051BA",
        "meta_epoch": "2025-12-04T15:59:51.159840",
        "meta_mean_motion": 14.56341841,
        "meta_eccentricity": 0.0061193,
        "meta_inclination": 86.3867,
        "meta_ra_of_asc_node": 110.249,
        "meta_arg_of_pericenter": 200.9329,
        "meta_mean_anomaly": 171.205,
        "meta_ephemeris_type": 0,
        "meta_classification_type": "U",
        "meta_norad_cat_id": 33881,
        "meta_element_set_no": 999,
        "meta_rev_at_epoch": 87383,
        "meta_bstar": 0.004493,
        "meta_mean_motion_dot": 0.00020483,
        "meta_mean_motion_ddot": 0,
        "tle_line1": "1 33881U 97051BA  25338.66656435  .00020483  00000+0  44930-2 0  9995",
        "tle_line2": "2 33881  86.3867 110.2490 0061193 200.9329 171.2050 14.56341841873837"
      },
      "geometry": {
        "type": "Point",
        "coordinates": [
          103.81430085211461,
          -58.94207450057552
        ]
      }
    },
    {
      "type": "Feature",
      "properties": {
        "norad_id": 33884,
        "name": "IRIDIUM 33 DEB",
        "group": "iridium-33-debris",
        "lat": 72.5843120345529,
        "lon": 24.712147003772614,
        "alt_km": 630.2428889767716,
        "timestamp": "2025-12-05T14:45:15.682543+00:00",
        "meta_object_name": "IRIDIUM 33 DEB",
        "meta_object_id": "1997-051BD",
        "meta_epoch": "2025-12-04T02:54:00.284832",
        "meta_mean_motion": 14.77168398,
        "meta_eccentricity": 0.00106133,
        "meta_inclination": 86.3697,
        "meta_ra_of_asc_node": 13.7089,
        "meta_arg_of_pericenter": 355.5376,
        "meta_mean_anomaly": 57.9595,
        "meta_ephemeris_type": 0,
        "meta_classification_type": "U",
        "meta_norad_cat_id": 33884,
        "meta_element_set_no": 999,
        "meta_rev_at_epoch": 88720,
        "meta_bstar": 0.0029953103,
        "meta_mean_motion_dot": 0.00021274,
        "meta_mean_motion_ddot": 0,
        "tle_line1": "1 33884U 97051BD  25338.12083663  .00021274  00000+0  29953-2 0  9993",
        "tle_line2": "2 33884  86.3697  13.7089 0010613 355.5376  57.9595 14.77168398887209"
      },
      "geometry": {
        "type": "Point",
        "coordinates": [
          24.712147003772614,
          72.5843120345529
        ]
      }
    }
  ]
}